[{"OBJECT_NAME":"STARLINK-1654","OBJECT_ID":"2020-062B","EPOCH":"2026-03-09T23:24:23.698656","MEAN_MOTION":15.68868536,"ECCENTRICITY":0.00033751,"INCLINATION":53.0444,"RA_OF_ASC_NODE":332.2394,"ARG_OF_PERICENTER":329.1833,"MEAN_ANOMALY":30.8985,"EPHEMERIS_TYPE":0,"CLASSIFICATION_TYPE":"U","NORAD_CAT_ID":46326,"ELEMENT_SET_NO":999,"REV_AT_EPOCH":30496,"BSTAR":0.00096287579,"MEAN_MOTION_DOT":0.00113674,"MEAN_MOTION_DDOT":0},{"OBJECT_NAME":"STARLINK-1736","OBJECT_ID":"2020-070BF","EPOCH":"2026-03-09T10:02:57.052032","MEAN_MOTION":15.66676236,"ECCENTRICITY":0.00011151,"INCLINATION":53.042,"RA_OF_ASC_NODE":117.3157,"ARG_OF_PERICENTER":98.6487,"MEAN_ANOMALY":261.4655,"EPHEMERIS_TYPE":0,"CLASSIFICATION_TYPE":"U","NORAD_CAT_ID":46585,"ELEMENT_SET_NO":999,"REV_AT_EPOCH":30031,"BSTAR":0.00089725065,"MEAN_MOTION_DOT":0.00096585,"MEAN_MOTION_DDOT":0}]
